0 THOR ABLESTAR DEB
1 00299U 61015CQ  13283.75864819  .00000041  00000-0  11591-3 0  1894
2 00299 067.1689 319.3282 0191109 130.8062 345.4229 13.67218941596009
0 THOR ABLESTAR DEB
1 00299U 61015CQ  13286.46433189  .00000027  00000-0  10062-3 0  1905
2 00299 067.1685 313.0719 0190920 128.7460 342.8236 13.67219480596377
0 THOR ABLESTAR DEB
1 00299U 61015CQ  13289.09639829  .00000037  00000-0  11177-3 0  1916
2 00299 067.1684 306.9855 0190743 126.7312 337.8954 13.67220322596733
0 THOR ABLESTAR DEB
1 00299U 61015CQ  13291.14688007  .00000050  00000-0  12476-3 0  1926
2 00299 067.1685 302.2441 0190638 125.1671 350.3994 13.67220590597011
0 THOR ABLESTAR DEB
1 00299U 61015CQ  13293.33862926  .00000094  00000-0  17082-3 0  1930
2 00299 067.1686 297.1761 0190533 123.4856 338.2369 13.67220886597311
0 THOR ABLESTAR DEB
1 00299U 61015CQ  13295.45490980  .00000106  00000-0  18416-3 0  1949
2 00299 067.1685 292.2825 0190444 121.8623 314.6179 13.67221454597603
